UNKNOWN                 
1 82829U          25165.53958189 -.00000089  00000+0 -13051-2 0  9996
2 82829  65.1005 349.3618 0167142  13.7795  21.0916 11.29093659465622
UNKNOWN                 
1 82854U          25165.37682789  .00001562  00000+0  12290-2 0  9995
2 82854  82.6895 206.7128 0133570  76.7117 284.8901 13.87130669 55018
UNKNOWN                 
1 82873U          25164.08395453  .00002711  00000+0  12165-2 0  9990
2 82873 100.0078  33.4833 0041722  70.1198 290.4464 14.23016724595246
UNKNOWN                 
1 82875U          25165.23190545  .00000936  00000+0  25327-3 0  9997
2 82875  98.6553 153.2919 0380705  83.7554 280.6836 14.14742349518807
UNKNOWN                 
1 82893U          25165.26493433  .00007593  00000+0  30502-2 0  9998
2 82893  98.9605 275.1659 0027521 203.5877 156.4043 14.28234936398042
UNKNOWN                 
1 82912U          25165.45762350  .00001388  00000+0  61471-3 0  9994
2 82912  65.8332 231.4470 0776997 351.1111   7.6800 13.26312756555271
UNKNOWN                 
1 82961U          25163.91744250  .00007377  00000+0  11769-1 0  9993
2 82961  99.9126 327.9353 0420970  78.3801 286.4242 13.19183316531570
UNKNOWN                 
1 82965U 70025    25162.66026145  .00000843  00000+0  12019-2 0  9999
2 82965 100.1221 236.2271 0002566 147.2410 212.8888 13.59554998499434
UNKNOWN                 
1 83903U          25165.65801039 -.00000333  00000+0  00000+0 0  9992
2 83903   6.6277 292.2370 0124264 244.9445 100.4445  0.99116684 41860
UNKNOWN                 
1 83934U          25165.27825700 -.00000203  00000+0  00000+0 0  9991
2 83934   6.1906 298.7653 0223542 265.1478  88.4178  1.02663066 43410
UNKNOWN                 
1 83970U          25164.99576717  .00009535  00000+0  10442-1 0  9999
2 83970  18.2758  65.0801 5080207 124.5946 294.1487  5.30432524186539
UNKNOWN                 
1 84006U          25165.37730649 -.00000041  00000+0  00000+0 0  9990
2 84006  22.8027 213.1081 6087896 358.6820   0.4264  2.16230544 80307
UNKNOWN                 
1 84188U          25164.66687763  .00427754  00000+0  25038+0 0  9991
2 84188  65.1359  42.2824 4031699  37.2023 344.9543  7.10536461 28095
UNKNOWN                 
1 84232U 79104    25151.05028913  .00008977  00000+0  58503-2 0  9995
2 84232  20.5498  24.9933 6595876 223.8362  59.1755  3.13792513 98521
UNKNOWN                 
1 84236U          25161.84783089 -.00000341  00000+0 -20603-2 0  9997
2 84236   9.3072  58.0320 6885090 290.6048  11.5741  2.62464404197849
UNKNOWN                 
1 84292U          25164.99213291  .00006534  00000+0  30857-2 0  9991
2 84292  23.8380  51.7536 4587813 162.6514 220.5342  6.19794781216772
UNKNOWN                 
1 84406U          25153.19015936  .00000418  00000+0  24205-2 0  9999
2 84406 101.7131 294.9454 0044791  68.1973 113.2812 12.67081166 24792
UNKNOWN                 
1 84407U          25165.17781818 -.00000683  00000+0 -23702-1 0  9996
2 84407  19.5965  15.6883 7201798 324.5910   4.1334  2.05761652 72131
UNKNOWN                 
1 84437U          25164.35189632 -.00000211  00000+0  00000+0 0  9994
2 84437  18.8709 302.2295 7019769 177.1809 191.6870  1.97307860  9345
UNKNOWN                 
1 84932U          25165.35413314  .00000096  00000+0  15651-2 0  9993
2 84932   2.3722 338.5617 6542074 224.6795  54.6054  2.99659504126338
UNKNOWN                 
1 85004U          25164.88178582  .00001181  00000+0  37933-3 0  9990
2 85004  98.3973 138.9676 0047447 350.8313  37.8469 14.40547939604718
UNKNOWN                 
1 85010U          25165.12563387  .00001027  00000+0  11254-2 0  9992
2 85010  99.2662  32.5253 0027528  13.2770 138.4347 13.74613765578962
UNKNOWN                 
1 85015U          25165.31905885  .00000399  00000+0  85402-4 0  9990
2 85015  74.0484  25.3007 0015004 334.1582  25.8833 14.62029727616092
UNKNOWN                 
1 85023U          25162.41284760  .00012241  00000+0  23396-2 0  9990
2 85023  99.8504 140.6339 0003748 100.3473  54.5168 14.64077812601782
UNKNOWN                 
1 85027U          25164.48928267  .00000160  00000+0  22415-3 0  9999
2 85027  66.0396 187.7942 0185336 284.1637  73.8898 13.74154325579570
UNKNOWN                 
1 85047U          25164.55941430  .00021475  00000+0  36582-1 0  9996
2 85047 102.3618  91.2324 0173283  53.1459 308.5409 13.39244483552236
UNKNOWN                 
1 85061U          25163.40096098  .00004341  00000+0  18024-1 0  9990
2 85061 102.4139 130.7914 0252833 183.7226 331.2611 12.75368974532390
UNKNOWN                 
1 85100U          25160.47562591  .00000259  00000+0  89595-4 0  9992
2 85100  74.0448 207.0809 0011320 124.4926 300.1700 14.40528027606527
UNKNOWN                 
1 85106U          25165.02640785  .00000645  00000+0  75585-3 0  9998
2 85106 100.0544 257.0218 0010861 115.9641  66.3972 13.72639231578138
UNKNOWN                 
1 85151U 86019    25165.04883817  .00028045  00000+0  45407-2 0  9992
2 85151  98.4157  22.3391 0011257   6.3399 353.7947 14.71165906452764
UNKNOWN                 
1 85210U 75052    25165.62214858  .00000782  00000+0  78278-3 0  9991
2 85210  99.8426 301.8911 0216636  58.9129 314.4388 13.71151811577332
UNKNOWN                 
1 85217U          25165.26667254  .00001271  00000+0  35349-3 0  9997
2 85217  98.0273 271.7561 0210224 316.3694  42.1034 14.35950528601807
UNKNOWN                 
1 85237U          25164.83698000  .00010601  00000+0  23303-2 0  9997
2 85237  65.5363 331.1289 0515626 111.8059 253.8684 13.98543712582893
UNKNOWN                 
1 85238U          25165.31003214  .00000039  00000+0  67605-4 0  9998
2 85238  99.0473  99.8762 0062972 332.3765 180.3230 13.88304202585664
UNKNOWN                 
1 85246U          25165.32323204  .00001342  00000+0  49299-3 0  9998
2 85246  97.9889 185.8894 0226477 118.6025 243.8143 14.20856829597305
UNKNOWN                 
1 85373U          25165.24854345  .00003293  00000+0  22925-2 0  9998
2 85373 100.4254 176.3111 0046115 358.4224  61.0355 13.99062453586741
UNKNOWN                 
1 87014U          25165.15013480  .00002172  00000+0  34169-2 0  9997
2 87014 100.5109 119.3666 0050930 326.8165  49.3178 13.50865247566390
UNKNOWN                 
1 87029U 99025    25159.56094906  .00000876  00000+0  56256-3 0  9999
2 87029  98.7715 201.3047 0083650  55.8364 305.0699 14.04027693566730
UNKNOWN                 
1 87042U 00055    25156.36719953  .00000823  00000+0  51706-3 0  9997
2 87042  98.7325 206.2458 0041960 270.9816  88.6546 14.06741176527195
UNKNOWN                 
1 87051U 76126    25165.13912390  .00002363  00000+0  78444-3 0  9993
2 87051  65.7285 326.9573 0732066 223.5034 130.6002 13.44865650564159
UNKNOWN                 
1 87054U 75052    25165.56617818  .00002334  00000+0  13496-2 0  9990
2 87054 100.1050  22.8425 0014745 108.8189 251.4578 14.10104064590784
UNKNOWN                 
1 87071U 68097    25165.35957567  .00003624  00000+0  12687-2 0  9999
2 87071  61.2164  89.8561 0503827 148.3239 214.9180 13.83291885577379
UNKNOWN                 
1 87074U 77121    25165.22296377  .00000245  00000+0  33220-3 0  9994
2 87074  66.1431 338.9063 0146365   5.6579 354.6095 13.71416462578296
UNKNOWN                 
1 87113U 76126    25165.44166425  .00075450  00000+0  23990-2 0  9998
2 87113  65.6198 286.2011 0117177 292.3864  66.4890 15.25692077608062
UNKNOWN                 
1 87129U 76077    25164.67888524  .00000132  00000+0  12865-2 0  9999
2 87129 102.2642 253.4638 0031741  67.6446 292.7977 12.42733350524055
UNKNOWN                 
1 87159U          25160.68379813  .00001020  00000+0  11877-2 0  9997
2 87159  90.3471  62.7473 0110820  88.2579 273.1270 13.65542100531295
UNKNOWN                 
1 87163U 76126    25161.46908254  .00004259  00000+0  12843-2 0  9999
2 87163  65.5981 332.7340 0652054 147.5264 216.7720 13.62567348552264
UNKNOWN                 
1 87164U          25165.17485864  .00002810  00000+0  61314-3 0  9996
2 87164  65.2026 134.0451 0103411 141.6250 219.2264 14.56364607609313
UNKNOWN                 
1 87204U          25164.84356636  .00002836  00000+0  11379-2 0  9991
2 87204  98.5561  29.3023 0046947 136.5147 223.9752 14.28382161599462
UNKNOWN                 
1 87211U          25165.23953937  .00003578  00000+0  10240-2 0  9990
2 87211  99.0756 152.4123 0054472 340.1249  34.6253 14.44867933681557
UNKNOWN                 
1 87214U 70025    25163.88718655  .00001904  00000+0  17409-2 0  9997
2 87214 100.3222 144.8156 0076530   3.3717 356.7934 13.83310354574953
UNKNOWN                 
1 87237U 99025    25163.65112243  .00000222  00000+0  20133-3 0  9990
2 87237  99.2770 219.3061 0104414  59.6594  90.8918 13.91576563586298
UNKNOWN                 
1 87239U 81053    25165.62832841  .00005865  00000+0  15658-2 0  9999
2 87239  82.8754 236.0593 0019673 244.8289 115.0867 14.48163401601632
UNKNOWN                 
1 87245U 71015    25165.44510009  .00003489  00000+0  70789-3 0  9999
2 87245  65.6572 171.5881 0452980 210.8149 304.3543 14.13479347588560
UNKNOWN                 
1 87271U 71015    25164.97655513  .00013548  00000+0  24916-2 0  9992
2 87271  65.7575   3.5578 0439552 169.1470 191.9495 14.18391853586567
UNKNOWN                 
1 87280U          25164.82817544  .00000290  00000+0  57299-3 0  9997
2 87280  64.6165 325.2098 0127553 297.2260  61.5829 13.48365579509326
UNKNOWN                 
1 87293U 71015    25165.53644832  .00006789  00000+0  14539-2 0  9990
2 87293  65.8970 265.3642 0427469  99.5306 265.4343 14.14992481588335
UNKNOWN                 
1 87300U 70025    25161.13522976  .00001370  00000+0  98545-3 0  9996
2 87300 100.0726 125.2911 0030188  64.7745 295.6539 13.98712787587169
UNKNOWN                 
1 87304U          25165.14069340  .00001519  00000+0  23208-3 0  9991
2 87304  74.0188 316.1856 0018699 329.8573  30.1523 14.74642154619707
